
# Worst residual: 3.31 km
# MJD 60848.000000 (2025 Jun 22  0:00)
1965-058A = NORAD 01458 = Vela 3a
1 01458U 65058A   25173.49919926  .00000000  00000-0  00000-0 0 26167
2 01458 025.3849 020.2766 4922347 303.7239 280.9970 00.21289405    08

# Worst residual: 24.42 km
# MJD 60849.000000 (2025 Jun 23  0:00)
1965-058A = NORAD 01458 = Vela 3a
1 01458U 65058A   25174.49919926  .00000000  00000-0  00000-0 0 26168
2 01458 025.3887 020.2621 4911748 303.8364 357.5346 00.21360909    00

# Worst residual: 30.51 km
# MJD 60850.000000 (2025 Jun 24  0:00)
1965-058A = NORAD 01458 = Vela 3a
1 01458U 65058A   25175.49919926  .00000000  00000-0  00000-0 0 26169
2 01458 025.4040 020.2661 4923854 303.8459 074.1551 00.21324516    06

# Worst residual: 14.13 km
# MJD 60851.000000 (2025 Jun 25  0:00)
1965-058A = NORAD 01458 = Vela 3a
1 01458U 65058A   25176.49919926  .00000000  00000-0  00000-0 0 26160
2 01458 025.4102 020.3144 4951796 303.8869 150.3955 00.21324502    03

# Worst residual: 18.06 km
# MJD 60852.000000 (2025 Jun 26  0:00)
1965-058A = NORAD 01458 = Vela 3a
1 01458U 65058A   25177.49919926  .00000000  00000-0  00000-0 0 26161
2 01458 025.4119 020.3255 4970984 303.8430 227.3213 00.21359292    04

# Worst residual: 49.82 km
# MJD 60853.000000 (2025 Jun 27  0:00)
1965-058A = NORAD 01458 = Vela 3a
1 01458U 65058A   25178.49919926  .00000000  00000-0  00000-0 0 26162
2 01458 025.4155 020.3180 4986714 303.5749 304.7289 00.21265547    01

# Worst residual: 52.32 km
# MJD 60854.000000 (2025 Jun 28  0:00)
1965-058A = NORAD 01458 = Vela 3a
1 01458U 65058A   25179.49919926  .00000000  00000-0  00000-0 0 26163
2 01458 025.4209 020.3156 4999969 303.9313 021.1936 00.21266710    03

# Worst residual: 9.97 km
# MJD 60855.000000 (2025 Jun 29  0:00)
1965-058A = NORAD 01458 = Vela 3a
1 01458U 65058A   25180.49919926  .00000000  00000-0  00000-0 0 26165
2 01458 025.4213 020.2974 4974741 303.9317 098.2663 00.21357189    03

# Worst residual: 16.93 km
# MJD 60856.000000 (2025 Jun 30  0:00)
1965-058A = NORAD 01458 = Vela 3a
1 01458U 65058A   25181.49919926  .00000000  00000-0  00000-0 0 26166
2 01458 025.4352 020.2320 4956978 304.1196 174.9064 00.21314756    02

# Worst residual: 13.99 km
# MJD 60857.000000 (2025 Jul  1  0:00)
1965-058A = NORAD 01458 = Vela 3a
1 01458U 65058A   25182.49919926  .00000000  00000-0  00000-0 0 26167
2 01458 025.4792 020.1379 4937649 304.3100 251.2024 00.21285960    03

# Worst residual: 18.41 km
# MJD 60858.000000 (2025 Jul  2  0:00)
1965-058A = NORAD 01458 = Vela 3a
1 01458U 65058A   25183.49919926  .00000000  00000-0  00000-0 0 26168
2 01458 025.5121 020.1202 4940350 304.3993 327.7361 00.21288091    09

# Worst residual: 17.50 km
# MJD 60859.000000 (2025 Jul  3  0:00)
1965-058A = NORAD 01458 = Vela 3a
1 01458U 65058A   25184.49919926  .00000000  00000-0  00000-0 0 26169
2 01458 025.5118 020.1297 4942501 304.6288 044.2110 00.21268254    01

# Worst residual: 8.89 km
# MJD 60860.000000 (2025 Jul  4  0:00)
1965-058A = NORAD 01458 = Vela 3a
1 01458U 65058A   25185.49919926  .00000000  00000-0  00000-0 0 26160
2 01458 025.5163 020.1189 4936209 304.5402 121.0881 00.21316829    07

# Worst residual: 11.18 km
# MJD 60861.000000 (2025 Jul  5  0:00)
1965-058A = NORAD 01458 = Vela 3a
1 01458U 65058A   25186.49919926  .00000000  00000-0  00000-0 0 26161
2 01458 025.5196 020.1265 4941813 304.4319 198.0902 00.21338644    08

# Worst residual: 16.40 km
# MJD 60862.000000 (2025 Jul  6  0:00)
1965-058A = NORAD 01458 = Vela 3a
1 01458U 65058A   25187.49919926  .00000000  00000-0  00000-0 0 26162
2 01458 025.5252 020.1200 4943250 304.2861 275.1850 00.21305045    05

# Worst residual: 21.56 km
# MJD 60863.000000 (2025 Jul  7  0:00)
1965-058A = NORAD 01458 = Vela 3a
1 01458U 65058A   25188.49919926  .00000000  00000-0  00000-0 0 26163
2 01458 025.5327 020.1086 4945694 304.3422 351.8402 00.21306802    05

# Worst residual: 9.75 km
# MJD 60864.000000 (2025 Jul  8  0:00)
1965-058A = NORAD 01458 = Vela 3a
1 01458U 65058A   25189.49919926  .00000000  00000-0  00000-0 0 26164
2 01458 025.5400 020.0988 4939493 304.3767 068.6128 00.21351746    04

# Worst residual: 5.16 km
# MJD 60865.000000 (2025 Jul  9  0:00)
1965-058A = NORAD 01458 = Vela 3a
1 01458U 65058A   25190.49919926  .00000000  00000-0  00000-0 0 26166
2 01458 025.5467 020.0897 4942147 304.5210 145.1028 00.21323165    05

# Worst residual: 9.70 km
# MJD 60866.000000 (2025 Jul 10  0:00)
1965-058A = NORAD 01458 = Vela 3a
1 01458U 65058A   25191.49919926  .00000000  00000-0  00000-0 0 26167
2 01458 025.5532 020.0798 4939430 304.5355 221.8257 00.21313537    07

# Worst residual: 46.13 km
# MJD 60867.000000 (2025 Jul 11  0:00)
1965-058A = NORAD 01458 = Vela 3a
1 01458U 65058A   25192.49919926  .00000000  00000-0  00000-0 0 26168
2 01458 025.5590 020.0695 4948922 304.2873 299.0048 00.21231555    09

# Worst residual: 63.60 km
# MJD 60868.000000 (2025 Jul 12  0:00)
1965-058A = NORAD 01458 = Vela 3a
1 01458U 65058A   25193.49919926  .00000000  00000-0  00000-0 0 26169
2 01458 025.5642 020.0703 4967824 304.6406 015.3561 00.21220250    04

# Worst residual: 6.43 km
# MJD 60869.000000 (2025 Jul 13  0:00)
1965-058A = NORAD 01458 = Vela 3a
1 01458U 65058A   25194.49919926  .00000000  00000-0  00000-0 0 26160
2 01458 025.5646 020.0526 4943554 304.6379 092.2705 00.21326596    08

# Worst residual: 3.82 km
# MJD 60870.000000 (2025 Jul 14  0:00)
1965-058A = NORAD 01458 = Vela 3a
1 01458U 65058A   25195.49919926  .00000000  00000-0  00000-0 0 26161
2 01458 025.5706 020.0448 4944740 304.6841 168.9327 00.21327653    06

# Worst residual: 2.98 km
# MJD 60871.000000 (2025 Jul 15  0:00)
1965-058A = NORAD 01458 = Vela 3a
1 01458U 65058A   25196.49919926  .00000000  00000-0  00000-0 0 26162
2 01458 025.5732 020.0460 4945088 304.7596 245.5154 00.21331630    03

# Worst residual: 11.81 km
# MJD 60872.000000 (2025 Jul 16  0:00)
1965-058A = NORAD 01458 = Vela 3a
1 01458U 65058A   25197.49919926  .00000000  00000-0  00000-0 0 26163
2 01458 025.5822 020.0393 4947337 304.7516 322.2887 00.21312403    02

# Worst residual: 17.04 km
# MJD 60873.000000 (2025 Jul 17  0:00)
1965-058A = NORAD 01458 = Vela 3a
1 01458U 65058A   25198.49919926  .00000000  00000-0  00000-0 0 26164
2 01458 025.5834 020.0546 4952858 304.9116 038.8445 00.21279706    05

# Worst residual: 8.51 km
# MJD 60874.000000 (2025 Jul 18  0:00)
1965-058A = NORAD 01458 = Vela 3a
1 01458U 65058A   25199.49919926  .00000000  00000-0  00000-0 0 26165
2 01458 025.5873 020.0366 4941793 304.8424 115.8065 00.21332415    06

# Worst residual: 6.42 km
# MJD 60875.000000 (2025 Jul 19  0:00)
1965-058A = NORAD 01458 = Vela 3a
1 01458U 65058A   25200.49919926  .00000000  00000-0  00000-0 0 26168
2 01458 025.5959 020.0170 4934975 304.8302 192.6948 00.21325534    00

# Worst residual: 11.81 km
# MJD 60876.000000 (2025 Jul 20  0:00)
1965-058A = NORAD 01458 = Vela 3a
1 01458U 65058A   25201.49919926  .00000000  00000-0  00000-0 0 26169
2 01458 025.6082 019.9988 4928443 304.7313 269.5952 00.21289477    00
